{
  "type": "FeatureCollection",
  "features": [
    {
      "type": "Feature",
      "properties": {
        "norad_id": 39773,
        "name": "EUTELSAT 3B",
        "group": "eutelsat",
        "lat": 0.060442599627196454,
        "lon": 46.37778609423669,
        "alt_km": 35804.34697537793,
        "timestamp": "2025-12-26T20:30:45.604447+00:00",
        "meta_object_name": "EUTELSAT 3B",
        "meta_object_id": "2014-030A",
        "meta_epoch": "2025-12-26T08:51:38.739168",
        "meta_mean_motion": 1.00270297,
        "meta_eccentricity": 0.00042981,
        "meta_inclination": 0.06,
        "meta_ra_of_asc_node": 352.4178,
        "meta_arg_of_pericenter": 243.3494,
        "meta_mean_anomaly": 355.3551,
        "meta_ephemeris_type": 0,
        "meta_classification_type": "U",
        "meta_norad_cat_id": 39773,
        "meta_element_set_no": 999,
        "meta_rev_at_epoch": 4233,
        "meta_bstar": 0,
        "meta_mean_motion_dot": 4.2e-07,
        "meta_mean_motion_ddot": 0,
        "tle_line1": "1 39773U 14030A   25360.36919837  .00000042  00000+0  00000+0 0  9993",
        "tle_line2": "2 39773   0.0600 352.4178 0004298 243.3494 355.3551  1.00270297 42336"
      },
      "geometry": {
        "type": "Point",
        "coordinates": [
          46.37778609423669,
          0.060442599627196454
        ]
      }
    },
    {
      "type": "Feature",
      "properties": {
        "norad_id": 40425,
        "name": "EUTELSAT 115 WEST B",
        "group": "eutelsat",
        "lat": 0.005524625073588675,
        "lon": -71.62758872292933,
        "alt_km": 35785.70936310672,
        "timestamp": "2025-12-26T20:30:45.604458+00:00",
        "meta_object_name": "EUTELSAT 115 WEST B",
        "meta_object_id": "2015-010B",
        "meta_epoch": "2025-12-26T05:44:38.581152",
        "meta_mean_motion": 1.00273604,
        "meta_eccentricity": 7.8e-06,
        "meta_inclination": 0.0077,
        "meta_ra_of_asc_node": 147.8651,
        "meta_arg_of_pericenter": 258.8043,
        "meta_mean_anomaly": 19.571,
        "meta_ephemeris_type": 0,
        "meta_classification_type": "U",
        "meta_norad_cat_id": 40425,
        "meta_element_set_no": 999,
        "meta_rev_at_epoch": 3965,
        "meta_bstar": 0,
        "meta_mean_motion_dot": -3e-08,
        "meta_mean_motion_ddot": 0,
        "tle_line1": "1 40425U 15010B   25360.23933543 -.00000003  00000+0  00000+0 0  9992",
        "tle_line2": "2 40425   0.0077 147.8651 0000078 258.8043  19.5710  1.00273604 39657"
      },
      "geometry": {
        "type": "Point",
        "coordinates": [
          -71.62758872292933,
          0.005524625073588675
        ]
      }
    },
    {
      "type": "Feature",
      "properties": {
        "norad_id": 40875,
        "name": "EUTELSAT 8 WEST B",
        "group": "eutelsat",
        "lat": 0.03478362565888743,
        "lon": 35.315290169740756,
        "alt_km": 35795.00750482367,
        "timestamp": "2025-12-26T20:30:45.604474+00:00",
        "meta_object_name": "EUTELSAT 8 WEST B",
        "meta_object_id": "2015-039B",
        "meta_epoch": "2025-12-26T06:08:50.644608",
        "meta_mean_motion": 1.00271377,
        "meta_eccentricity": 0.00042085,
        "meta_inclination": 0.0651,
        "meta_ra_of_asc_node": 11.4179,
        "meta_arg_of_pericenter": 264.1892,
        "meta_mean_anomaly": 263.6052,
        "meta_ephemeris_type": 0,
        "meta_classification_type": "U",
        "meta_norad_cat_id": 40875,
        "meta_element_set_no": 999,
        "meta_rev_at_epoch": 3792,
        "meta_bstar": 0,
        "meta_mean_motion_dot": -4.4e-07,
        "meta_mean_motion_ddot": 0,
        "tle_line1": "1 40875U 15039B   25360.25614172 -.00000044  00000+0  00000+0 0  9993",
        "tle_line2": "2 40875   0.0651  11.4179 0004208 264.1892 263.6052  1.00271377 37920"
      },
      "geometry": {
        "type": "Point",
        "coordinates": [
          35.315290169740756,
          0.03478362565888743
        ]
      }
    },
    {
      "type": "Feature",
      "properties": {
        "norad_id": 41310,
        "name": "EUTELSAT 9B",
        "group": "eutelsat",
        "lat": 0.011737559484917118,
        "lon": 52.30471510886901,
        "alt_km": 35801.102118678435,
        "timestamp": "2025-12-26T20:30:45.604489+00:00",
        "meta_object_name": "EUTELSAT 9B",
        "meta_object_id": "2016-005A",
        "meta_epoch": "2025-12-26T08:43:38.554752",
        "meta_mean_motion": 1.00269907,
        "meta_eccentricity": 0.00047283,
        "meta_inclination": 0.0277,
        "meta_ra_of_asc_node": 48.2901,
        "meta_arg_of_pericenter": 227.4289,
        "meta_mean_anomaly": 319.2953,
        "meta_ephemeris_type": 0,
        "meta_classification_type": "U",
        "meta_norad_cat_id": 41310,
        "meta_element_set_no": 999,
        "meta_rev_at_epoch": 3638,
        "meta_bstar": 0,
        "meta_mean_motion_dot": 8.3e-07,
        "meta_mean_motion_ddot": 0,
        "tle_line1": "1 41310U 16005A   25360.36364068  .00000083  00000+0  00000+0 0  9992",
        "tle_line2": "2 41310   0.0277  48.2901 0004728 227.4289 319.2953  1.00269907 36382"
      },
      "geometry": {
        "type": "Point",
        "coordinates": [
          52.30471510886901,
          0.011737559484917118
        ]
      }
    },
    {
      "type": "Feature",
      "properties": {
        "norad_id": 41382,
        "name": "EUTELSAT 65 WEST A",
        "group": "eutelsat",
        "lat": -0.015664235509424747,
        "lon": -21.880682180279884,
        "alt_km": 35781.199728990156,
        "timestamp": "2025-12-26T20:30:45.604500+00:00",
        "meta_object_name": "EUTELSAT 65 WEST A",
        "meta_object_id": "2016-014A",
        "meta_epoch": "2025-12-26T08:16:36.677280",
        "meta_mean_motion": 1.00271228,
        "meta_eccentricity": 0.00023733,
        "meta_inclination": 0.0477,
        "meta_ra_of_asc_node": 347.1965,
        "meta_arg_of_pericenter": 291.4205,
        "meta_mean_anomaly": 235.4476,
        "meta_ephemeris_type": 0,
        "meta_classification_type": "U",
        "meta_norad_cat_id": 41382,
        "meta_element_set_no": 999,
        "meta_rev_at_epoch": 3580,
        "meta_bstar": 0,
        "meta_mean_motion_dot": -2.54e-06,
        "meta_mean_motion_ddot": 0,
        "tle_line1": "1 41382U 16014A   25360.34486895 -.00000254  00000+0  00000+0 0  9993",
        "tle_line2": "2 41382   0.0477 347.1965 0002373 291.4205 235.4476  1.00271228 35801"
      },
      "geometry": {
        "type": "Point",
        "coordinates": [
          -21.880682180279884,
          -0.015664235509424747
        ]
      }
    },
    {
      "type": "Feature",
      "properties": {
        "norad_id": 41589,
        "name": "EUTELSAT 117 WEST B",
        "group": "eutelsat",
        "lat": 0.01633749964158375,
        "lon": -73.73055947887316,
        "alt_km": 35785.56817389335,
        "timestamp": "2025-12-26T20:30:45.604510+00:00",
        "meta_object_name": "EUTELSAT 117 WEST B",
        "meta_object_id": "2016-038B",
        "meta_epoch": "2025-12-26T14:11:16.512576",
        "meta_mean_motion": 1.00272826,
        "meta_eccentricity": 6.01e-06,
        "meta_inclination": 0.0412,
        "meta_ra_of_asc_node": 183.3405,
        "meta_arg_of_pericenter": 69.2991,
        "meta_mean_anomaly": 298.5047,
        "meta_ephemeris_type": 0,
        "meta_classification_type": "U",
        "meta_norad_cat_id": 41589,
        "meta_element_set_no": 999,
        "meta_rev_at_epoch": 3493,
        "meta_bstar": 0,
        "meta_mean_motion_dot": 1e-07,
        "meta_mean_motion_ddot": 0,
        "tle_line1": "1 41589U 16038B   25360.59116334  .00000010  00000+0  00000+0 0  9992",
        "tle_line2": "2 41589   0.0412 183.3405 0000060  69.2991 298.5047  1.00272826 34934"
      },
      "geometry": {
        "type": "Point",
        "coordinates": [
          -73.73055947887316,
          0.01633749964158375
        ]
      }
    },
    {
      "type": "Feature",
      "properties": {
        "norad_id": 42741,
        "name": "EUTELSAT 172B",
        "group": "eutelsat",
        "lat": 0.017802796249257943,
        "lon": -144.7261243701881,
        "alt_km": 35786.162631245825,
        "timestamp": "2025-12-26T20:30:45.604521+00:00",
        "meta_object_name": "EUTELSAT 172B",
        "meta_object_id": "2017-029B",
        "meta_epoch": "2025-12-26T11:04:38.607744",
        "meta_mean_motion": 1.00270806,
        "meta_eccentricity": 8.38e-06,
        "meta_inclination": 0.0363,
        "meta_ra_of_asc_node": 152.095,
        "meta_arg_of_pericenter": 3.6927,
        "meta_mean_anomaly": 277.5772,
        "meta_ephemeris_type": 0,
        "meta_classification_type": "U",
        "meta_norad_cat_id": 42741,
        "meta_element_set_no": 999,
        "meta_rev_at_epoch": 3199,
        "meta_bstar": 0,
        "meta_mean_motion_dot": 1.6e-07,
        "meta_mean_motion_ddot": 0,
        "tle_line1": "1 42741U 17029B   25360.46155796  .00000016  00000+0  00000+0 0  9991",
        "tle_line2": "2 42741   0.0363 152.0950 0000083   3.6927 277.5772  1.00270806 31995"
      },
      "geometry": {
        "type": "Point",
        "coordinates": [
          -144.7261243701881,
          0.017802796249257943
        ]
      }
    }
  ]
}